ZACUBE-1 (TSHEPISOSAT)  
1 39417U 13066B   26117.14255967  .00005686  00000+0  44396-3 0  9999
2 39417  97.8120  79.2054 0044094  63.8672 296.7078 15.00757321673076
WNISAT-1                
1 39423U 13066H   26117.15312460  .00000716  00000+0  13844-3 0  9992
2 39423  97.7134 269.9521 0163913  33.1117 328.0216 14.58000408659290
TRITON-1                
1 39427U 13066M   26117.30601902  .00003660  00000+0  44140-3 0  9999
2 39427  97.8272  28.2736 0091531  40.9389 319.8649 14.81455282666550
GOMX-1                  
1 39430U 13066Q   26117.31598807  .00001571  00000+0  24319-3 0  9998
2 39430  97.6529 320.9826 0127632 240.6296 118.2116 14.69263404662440
CUBEBUG-2 (LO-74)       
1 39440U 13066AA  26117.28058147  .00004276  00000+0  40001-3 0  9994
2 39440  97.8874  66.0709 0057425 194.5511 165.4058 14.93400353669396
NEE-02 KRYSAOR          
1 39441U 13066AB  26116.78212103  .00001954  00000+0  21949-3 0  9993
2 39441  97.8867  56.3801 0064939 237.6988 121.7927 14.86432467668560
FUNCUBE-1 (AO-73)       
1 39444U 13066AE  26116.86959254  .00010608  00000+0  66839-3 0  9993
2 39444  97.8240  87.2818 0037413  21.1117 339.1645 15.08754845671924
UWE-3                   
1 39446U 13066AG  26117.14208317  .00004289  00000+0  37227-3 0  9991
2 39446  97.8655  72.9028 0050629 128.8388 231.7369 14.96594807669944
BRITE-CA1 (TORONTO)     
1 40020U 14033L   26117.28223587  .00001113  00000+0  17417-3 0  9999
2 40020  97.9659 247.1737 0080047  80.1674 280.8560 14.72600195634725
DUCHIFAT-1              
1 40021U 14033M   26117.08889656  .00070643  00000+0  10062-2 0  9995
2 40021  98.0538 169.4491 0004294 231.1866 128.9004 15.56089814647785
NANOSATC-BR1            
1 40024U 14033Q   26117.01707883  .00018461  00000+0  64118-3 0  9994
2 40024  98.0774 144.9289 0003621  33.2067 326.9398 15.29820947646156
QB50P1                  
1 40025U 14033R   26116.99294189  .00009377  00000+0  47164-3 0  9999
2 40025  98.0988 124.5794 0010100  50.0262 310.1856 15.17436151645265
QB50P2                  
1 40032U 14033Y   26117.23704023  .00008805  00000+0  48194-3 0  9997
2 40032  98.0754 110.9760 0007353   4.5092 355.6203 15.14485029644957
PERSEUS-M2              
1 40037U 14033AD  26117.27721689  .00002910  00000+0  26885-3 0  9997
2 40037  97.9924  66.7992 0013496 105.7681 254.5028 14.95350191643171
PERSEUS-M1              
1 40039U 14033AF  26117.25410160  .00002441  00000+0  22579-3 0  9991
2 40039  97.9615  60.5677 0013177 104.6267 255.6415 14.95456591643023
POLYITAN-1              
1 40042U 14033AJ  26117.31346526  .00022513  00000+0  74119-3 0  9995
2 40042  98.0992 138.8274 0006015 339.2837  20.8158 15.31500269645808
